IRIDIUM 166             
1 43570U 18061B   24348.75165453  .00000549  00000+0  18882-3 0  9999
2 43570  86.3956 286.7436 0001862  85.2459 274.8950 14.34216991334504
IRIDIUM 158             
1 43571U 18061C   24348.58040022  .00000442  00000+0  15076-3 0  9999
2 43571  86.3954 286.8249 0002207  78.2933 281.8511 14.34216842334459
IRIDIUM 165             
1 43572U 18061D   24348.53600182  .00000120  00000+0  35622-4 0  9997
2 43572  86.3959 286.8792 0002204  88.1161 272.0287 14.34217602334466
IRIDIUM 155             
1 43573U 18061E   24348.70725114  .00000298  00000+0  99430-4 0  9993
2 43573  86.3953 286.7040 0001951  78.2326 281.9089 14.34216933334462
IRIDIUM 154             
1 43574U 18061F   24348.75798545  .00000338  00000+0  11362-3 0  9999
2 43574  86.3957 286.7891 0002235  87.0741 273.0710 14.34221263334517
IRIDIUM 163             
1 43575U 18061G   24347.76220539  .00000026  00000+0  22737-5 0  9997
2 43575  86.3954 287.1383 0002187  80.4054 279.7389 14.34217488334346
IRIDIUM 156             
1 43576U 18061H   24348.78334803  .00000505  00000+0  17332-3 0  9996
2 43576  86.3955 286.7183 0001876  80.9553 279.1855 14.34210016334470
IRIDIUM 164             
1 43577U 18061J   24348.55502876  .00000032  00000+0  43430-5 0  9994
2 43577  86.3956 286.8449 0002093  92.6309 267.5126 14.34217023334498
